{"type": "FeatureCollection", "features": [ {"type": "Feature", "properties": {"norad_id": 66564, "name": "STARLINK-35358", "group": "last-30-days", "lat": -22.214412790679596, "lon": 7.098167455083661, "alt_km": 374.8137771280235, "timestamp": "2025-12-05T22:40:47.342363+00:00", "meta": {"OBJECT_NAME": "STARLINK-35358", "OBJECT_ID": "2025-268H", "EPOCH": "2025-12-05T06:00:02.000160", "MEAN_MOTION": 15.67860478, "ECCENTRICITY": 0.00016382, "INCLINATION": 42.9995, "RA_OF_ASC_NODE": 165.2678, "ARG_OF_PERICENTER": 262.7035, "MEAN_ANOMALY": 347.3162, "EPHEMERIS_TYPE": 0, "CLASSIFICATION_TYPE": "U", "NORAD_CAT_ID": 66564, "ELEMENT_SET_NO": 999, "REV_AT_EPOCH": 341, "BSTAR": -0.019903833, "MEAN_MOTION_DOT": -0.01989573, "MEAN_MOTION_DDOT": 0}, "tle": {"line1": "1 66564U 25268H   25339.25002315 -.01989573  00000+0 -19904-1 0  9997", "line2": "2 66564  42.9995 165.2678 0001638 262.7035 347.3162 15.67860478  3411"}}, "geometry": {"type": "Point", "coordinates": [7.098167455083661, -22.214412790679596]}}, {"type": "Feature", "properties": {"norad_id": 66565, "name": "STARLINK-35893", "group": "last-30-days", "lat": -23.37877974851907, "lon": 8.740780100326809, "alt_km": 374.8606865201, "timestamp": "2025-12-05T22:40:47.342374+00:00", "meta": {"OBJECT_NAME": "STARLINK-35893", "OBJECT_ID": "2025-268J", "EPOCH": "2025-12-05T06:00:02.000160", "MEAN_MOTION": 15.67862936, "ECCENTRICITY": 0.00016765, "INCLINATION": 42.9995, "RA_OF_ASC_NODE": 165.2628, "ARG_OF_PERICENTER": 262.8792, "MEAN_ANOMALY": 349.056, "EPHEMERIS_TYPE": 0, "CLASSIFICATION_TYPE": "U", "NORAD_CAT_ID": 66565, "ELEMENT_SET_NO": 999, "REV_AT_EPOCH": 346, "BSTAR": -0.019937435, "MEAN_MOTION_DOT": -0.01992737, "MEAN_MOTION_DDOT": 0}, "tle": {"line1": "1 66565U 25268J   25339.25002315 -.01992737  00000+0 -19937-1 0  9990", "line2": "2 66565  42.9995 165.2628 0001676 262.8792 349.0560 15.67862936  3467"}}, "geometry": {"type": "Point", "coordinates": [8.740780100326809, -23.37877974851907]}}, {"type": "Feature", "properties": {"norad_id": 66566, "name": "STARLINK-35871", "group": "last-30-days", "lat": -24.525597719938705, "lon": 10.412395164140738, "alt_km": 374.9322084922196, "timestamp": "2025-12-05T22:40:47.342384+00:00", "meta": {"OBJECT_NAME": "STARLINK-35871", "OBJECT_ID": "2025-268K", "EPOCH": "2025-12-05T06:00:02.000160", "MEAN_MOTION": 15.67866218, "ECCENTRICITY": 0.0001661, "INCLINATION": 42.9995, "RA_OF_ASC_NODE": 165.2578, "ARG_OF_PERICENTER": 263.1285, "MEAN_ANOMALY": 350.7224, "EPHEMERIS_TYPE": 0, "CLASSIFICATION_TYPE": "U", "NORAD_CAT_ID": 66566, "ELEMENT_SET_NO": 999, "REV_AT_EPOCH": 346, "BSTAR": -0.019983551, "MEAN_MOTION_DOT": -0.01997018, "MEAN_MOTION_DDOT": 0}, "tle": {"line1": "1 66566U 25268K   25339.25002315 -.01997018  00000+0 -19984-1 0  9990", "line2": "2 66566  42.9995 165.2578 0001661 263.1285 350.7224 15.67866218  3460"}}, "geometry": {"type": "Point", "coordinates": [10.412395164140738, -24.525597719938705]}}, {"type": "Feature", "properties": {"norad_id": 66567, "name": "STARLINK-35825", "group": "last-30-days", "lat": -25.657212930117595, "lon": 12.120684729806936, "alt_km": 374.91143867554456, "timestamp": "2025-12-05T22:40:47.342394+00:00", "meta": {"OBJECT_NAME": "STARLINK-35825", "OBJECT_ID": "2025-268L", "EPOCH": "2025-12-05T06:00:02.000160", "MEAN_MOTION": 15.67862832, "ECCENTRICITY": 0.00017338, "INCLINATION": 42.9995, "RA_OF_ASC_NODE": 165.2532, "ARG_OF_PERICENTER": 262.711, "MEAN_ANOMALY": 353.0558, "EPHEMERIS_TYPE": 0, "CLASSIFICATION_TYPE": "U", "NORAD_CAT_ID": 66567, "ELEMENT_SET_NO": 999, "REV_AT_EPOCH": 346, "BSTAR": -0.019908066, "MEAN_MOTION_DOT": -0.01990193, "MEAN_MOTION_DDOT": 0}, "tle": {"line1": "1 66567U 25268L   25339.25002315 -.01990193  00000+0 -19908-1 0  9994", "line2": "2 66567  42.9995 165.2532 0001733 262.7110 353.0558 15.67862832  3467"}}, "geometry": {"type": "Point", "coordinates": [12.120684729806936, -25.657212930117595]}}, {"type": "Feature", "properties": {"norad_id": 66568, "name": "STARLINK-35803", "group": "last-30-days", "lat": -26.76573017371653, "lon": 13.856436898568933, "alt_km": 375.01148048045343, "timestamp": "2025-12-05T22:40:47.342406+00:00", "meta": {"OBJECT_NAME": "STARLINK-35803", "OBJECT_ID": "2025-268M", "EPOCH": "2025-12-05T06:00:02.000160", "MEAN_MOTION": 15.67864414, "ECCENTRICITY": 0.00016408, "INCLINATION": 42.9995, "RA_OF_ASC_NODE": 165.2479, "ARG_OF_PERICENTER": 262.9153, "MEAN_ANOMALY": 354.7692, "EPHEMERIS_TYPE": 0, "CLASSIFICATION_TYPE": "U", "NORAD_CAT_ID": 66568, "ELEMENT_SET_NO": 999, "REV_AT_EPOCH": 346, "BSTAR": -0.019939413, "MEAN_MOTION_DOT": -0.0199299, "MEAN_MOTION_DDOT": 0}, "tle": {"line1": "1 66568U 25268M   25339.25002315 -.01992990  00000+0 -19939-1 0  9996", "line2": "2 66568  42.9995 165.2479 0001640 262.9153 354.7692 15.67864414  3469"}}, "geometry": {"type": "Point", "coordinates": [13.856436898568933, -26.76573017371653]}}, {"type": "Feature", "properties": {"norad_id": 66569, "name": "STARLINK-35835", "group": "last-30-days", "lat": -27.851972423464524, "lon": 15.626112091684485, "alt_km": 375.0462073218687, "timestamp": "2025-12-05T22:40:47.342416+00:00", "meta": {"OBJECT_NAME": "STARLINK-35835", "OBJECT_ID": "2025-268N", "EPOCH": "2025-12-05T06:00:02.000160", "MEAN_MOTION": 15.67865255, "ECCENTRICITY": 0.00016779, "INCLINATION": 42.9994, "RA_OF_ASC_NODE": 165.2434, "ARG_OF_PERICENTER": 263.398, "MEAN_ANOMALY": 356.2029, "EPHEMERIS_TYPE": 0, "CLASSIFICATION_TYPE": "U", "NORAD_CAT_ID": 66569, "ELEMENT_SET_NO": 999, "REV_AT_EPOCH": 346, "BSTAR": -0.019950968, "MEAN_MOTION_DOT": -0.01994097, "MEAN_MOTION_DDOT": 0}, "tle": {"line1": "1 66569U 25268N   25339.25002315 -.01994097  00000+0 -19951-1 0  9991", "line2": "2 66569  42.9994 165.2434 0001677 263.3980 356.2029 15.67865255  3468"}}, "geometry": {"type": "Point", "coordinates": [15.626112091684485, -27.851972423464524]}}, {"type": "Feature", "properties": {"norad_id": 66570, "name": "STARLINK-35834", "group": "last-30-days", "lat": -28.919291335351925, "lon": 17.437526056013255, "alt_km": 375.05162091272996, "timestamp": "2025-12-05T22:40:47.342426+00:00", "meta": {"OBJECT_NAME": "STARLINK-35834", "OBJECT_ID": "2025-268P", "EPOCH": "2025-12-05T06:00:02.000160", "MEAN_MOTION": 15.67853714, "ECCENTRICITY": 0.00016212, "INCLINATION": 42.9994, "RA_OF_ASC_NODE": 165.2379, "ARG_OF_PERICENTER": 261.6286, "MEAN_ANOMALY": 359.8983, "EPHEMERIS_TYPE": 0, "CLASSIFICATION_TYPE": "U", "NORAD_CAT_ID": 66570, "ELEMENT_SET_NO": 999, "REV_AT_EPOCH": 346, "BSTAR": -0.019822931, "MEAN_MOTION_DOT": -0.01981949, "MEAN_MOTION_DDOT": 0}, "tle": {"line1": "1 66570U 25268P   25339.25002315 -.01981949  00000+0 -19823-1 0  9993", "line2": "2 66570  42.9994 165.2379 0001621 261.6286 359.8983 15.67853714  3462"}}, "geometry": {"type": "Point", "coordinates": [17.437526056013255, -28.919291335351925]}}, {"type": "Feature", "properties": {"norad_id": 66571, "name": "STARLINK-35836", "group": "last-30-days", "lat": -29.957182101401518, "lon": 19.27895970025051, "alt_km": 375.0620636500662, "timestamp": "2025-12-05T22:40:47.342436+00:00", "meta": {"OBJECT_NAME": "STARLINK-35836", "OBJECT_ID": "2025-268Q", "EPOCH": "2025-12-05T06:00:02.000160", "MEAN_MOTION": 15.67858013, "ECCENTRICITY": 0.00016995, "INCLINATION": 42.9995, "RA_OF_ASC_NODE": 165.2335, "ARG_OF_PERICENTER": 262.2503, "MEAN_ANOMALY": 1.1895, "EPHEMERIS_TYPE": 0, "CLASSIFICATION_TYPE": "U", "NORAD_CAT_ID": 66571, "ELEMENT_SET_NO": 999, "REV_AT_EPOCH": 346, "BSTAR": -0.019863089, "MEAN_MOTION_DOT": -0.01985858, "MEAN_MOTION_DDOT": 0}, "tle": {"line1": "1 66571U 25268Q   25339.25002315 -.01985858  00000+0 -19863-1 0  9991", "line2": "2 66571  42.9995 165.2335 0001699 262.2503   1.1895 15.67858013  3466"}}, "geometry": {"type": "Point", "coordinates": [19.27895970025051, -29.957182101401518]}}, {"type": "Feature", "properties": {"norad_id": 66572, "name": "STARLINK-35870", "group": "last-30-days", "lat": -30.969873732861572, "lon": 21.161479614087536, "alt_km": 375.076970988619, "timestamp": "2025-12-05T22:40:47.342450+00:00", "meta": {"OBJECT_NAME": "STARLINK-35870", "OBJECT_ID": "2025-268R", "EPOCH": "2025-12-05T06:00:02.000160", "MEAN_MOTION": 15.67854805, "ECCENTRICITY": 0.00016963, "INCLINATION": 42.9996, "RA_OF_ASC_NODE": 165.2297, "ARG_OF_PERICENTER": 261.2793, "MEAN_ANOMALY": 4.0816, "EPHEMERIS_TYPE": 0, "CLASSIFICATION_TYPE": "U", "NORAD_CAT_ID": 66572, "ELEMENT_SET_NO": 999, "REV_AT_EPOCH": 346, "BSTAR": -0.019846727, "MEAN_MOTION_DOT": -0.01984184, "MEAN_MOTION_DDOT": 0}, "tle": {"line1": "1 66572U 25268R   25339.25002315 -.01984184  00000+0 -19847-1 0  9995", "line2": "2 66572  42.9996 165.2297 0001696 261.2793   4.0816 15.67854805  3462"}}, "geometry": {"type": "Point", "coordinates": [21.161479614087536, -30.969873732861572]}}, {"type": "Feature", "properties": {"norad_id": 66573, "name": "STARLINK-35650", "group": "last-30-days", "lat": -31.95484434660298, "lon": 23.082266243034194, "alt_km": 375.16159087750293, "timestamp": "2025-12-05T22:40:47.342460+00:00", "meta": {"OBJECT_NAME": "STARLINK-35650", "OBJECT_ID": "2025-268S", "EPOCH": "2025-12-05T06:00:02.000160", "MEAN_MOTION": 15.67856009, "ECCENTRICITY": 0.0001704, "INCLINATION": 42.9997, "RA_OF_ASC_NODE": 165.2238, "ARG_OF_PERICENTER": 264.6181, "MEAN_ANOMALY": 2.6565, "EPHEMERIS_TYPE": 0, "CLASSIFICATION_TYPE": "U", "NORAD_CAT_ID": 66573, "ELEMENT_SET_NO": 999, "REV_AT_EPOCH": 346, "BSTAR": -0.01983301, "MEAN_MOTION_DOT": -0.01983069, "MEAN_MOTION_DDOT": 0}, "tle": {"line1": "1 66573U 25268S   25339.25002315 -.01983069  00000+0 -19833-1 0  9992", "line2": "2 66573  42.9997 165.2238 0001704 264.6181   2.6565 15.67856009  3460"}}, "geometry": {"type": "Point", "coordinates": [23.082266243034194, -31.95484434660298]}}]}